<?xml version="1.0" encoding="UTF-8"?><kml xmlns="http://www.opengis.net/kml/2.2"><Document><name>test</name><Folder><name>Survey</name><Placemark><name>Plot A</name><description>Rice field</description><Polygon><outerBoundaryIs><LinearRing><coordinates>76.97,11.0 76.97,11.01 76.96,11.01 76.96,11.0 76.97,11.0</coordinates></LinearRing></outerBoundaryIs></Polygon></Placemark><Placemark><name>Plot B (with pond)</name><Polygon><outerBoundaryIs><LinearRing><coordinates>76.98,11.0 76.99,11.0 76.99,11.01 76.98,11.01 76.98,11.0</coordinates></LinearRing></outerBoundaryIs><innerBoundaryIs><LinearRing><coordinates>76.983,11.003 76.987,11.003 76.987,11.007 76.983,11.007 76.983,11.003</coordinates></LinearRing></innerBoundaryIs></Polygon></Placemark><Placemark><name>Parcels</name><MultiGeometry><Polygon><outerBoundaryIs><LinearRing><coordinates>77.005,11.0 77.005,11.005 77.0,11.005 77.0,11.0 77.005,11.0</coordinates></LinearRing></outerBoundaryIs></Polygon><Polygon><outerBoundaryIs><LinearRing><coordinates>77.015,11.0 77.015,11.005 77.01,11.005 77.01,11.0 77.015,11.0</coordinates></LinearRing></outerBoundaryIs></Polygon></MultiGeometry></Placemark><Placemark><name>Access road</name><LineString><coordinates>76.96,10.995 76.97,10.995 76.97,11.015</coordinates></LineString></Placemark><Placemark><name>Borewell</name><Point><coordinates>76.965,11.005</coordinates></Point></Placemark><Placemark><name>Mixed</name><MultiGeometry><Point><coordinates>76.96,11.0</coordinates></Point><LineString><coordinates>76.96,11.0 76.97,11.0</coordinates></LineString></MultiGeometry></Placemark></Folder></Document></kml>